{
"type": "FeatureCollection",
"name": "boundary",
"crs": { "type": "name", "properties": { "name": "urn:ogc:def:crs:OGC:1.3:CRS84" } },
"features": [
{ "type": "Feature", "properties": { "name": "Beledweyne" }, "geometry": { "type": "Polygon", "coordinates": [ [ [ 45.164895925906308, 4.743915779289807 ], [ 45.164265813216787, 4.754807726695276 ], [ 45.168350292931734, 4.76188524280974 ], [ 45.187793769566838, 4.769975438715562 ], [ 45.198914051242525, 4.781828282948936 ], [ 45.221189741213664, 4.784693070628748 ], [ 45.239946845370696, 4.78088989075593 ], [ 45.26016671032545, 4.765339609835166 ], [ 45.269753424880719, 4.748956680806202 ], [ 45.271688771319816, 4.738694846090311 ], [ 45.268178143606519, 4.729378179959099 ], [ 45.253505519164435, 4.71900382476673 ], [ 45.233476938210174, 4.710024719165517 ], [ 45.213628388939071, 4.700122948715148 ], [ 45.185734652132567, 4.707774316831319 ], [ 45.173942543613578, 4.708044365255319 ], [ 45.169993087211253, 4.711971317922007 ], [ 45.166966295658085, 4.720061513827829 ], [ 45.164175796475888, 4.732933816042816 ], [ 45.164895925906308, 4.743915779289807 ] ] ] } }
]
}
