{
"type": "FeatureCollection",
"name": "idps",
"crs": { "type": "name", "properties": { "name": "urn:ogc:def:crs:OGC:1.3:CRS84" } },
"features": [
{ "type": "Feature", "properties": { "settlementName": "Alla - Bari", "settlementDTMId": "DTM-SO2001-2756", "urbanName": "Belet Weyne", "admin1Name": "Hiraan", "admin2Name": "Belet Weyne", "settlementClass": "IDP site (camp or camp-like setting)", "idpIndividuals": 360, "idpHouseholds": 60, "populationCategory": "IDP", "inFlood": 1 }, "geometry": { "type": "Point", "coordinates": [ 45.2110924, 4.73565760000002 ] } },
{ "type": "Feature", "properties": { "settlementName": "Alla Aamin1", "settlementDTMId": "DTM-SO2001-11848", "urbanName": "Belet Weyne", "admin1Name": "Hiraan", "admin2Name": "Belet Weyne", "settlementClass": "IDP site (camp or camp-like setting)", "idpIndividuals": 1518, "idpHouseholds": 253, "populationCategory": "IDP", "inFlood": 1 }, "geometry": { "type": "Point", "coordinates": [ 45.187086700000101, 4.75546370000006 ] } },
{ "type": "Feature", "properties": { "settlementName": "Alla Magan", "settlementDTMId": "DTM-SO2001-11885", "urbanName": "Belet Weyne", "admin1Name": "Hiraan", "admin2Name": "Belet Weyne", "settlementClass": "IDP site (camp or camp-like setting)", "idpIndividuals": 312, "idpHouseholds": 52, "populationCategory": "IDP", "inFlood": 1 }, "geometry": { "type": "Point", "coordinates": [ 45.191687300000098, 4.73737530000005 ] } },
{ "type": "Feature", "properties": { "settlementName": "Alla-Amin2", "settlementDTMId": "DTM-SO2001-11833", "urbanName": "Belet Weyne", "admin1Name": "Hiraan", "admin2Name": "Belet Weyne", "settlementClass": "IDP site (camp or camp-like setting)", "idpIndividuals": 1800, "idpHouseholds": 300, "populationCategory": "IDP", "inFlood": 1 }, "geometry": { "type": "Point", "coordinates": [ 45.181692100000099, 4.75830060000004 ] } },
{ "type": "Feature", "properties": { "settlementName": "Alla-Suge", "settlementDTMId": "DTM-SO2001-2757", "urbanName": "Belet Weyne", "admin1Name": "Hiraan", "admin2Name": "Belet Weyne", "settlementClass": "IDP site (camp or camp-like setting)", "idpIndividuals": 1398, "idpHouseholds": 233, "populationCategory": "IDP", "inFlood": 1 }, "geometry": { "type": "Point", "coordinates": [ 45.188085800000103, 4.75378090000004 ] } },
{ "type": "Feature", "properties": { "settlementName": "Arlaadi", "settlementDTMId": "DTM-SO2001-2758", "urbanName": "Belet Weyne", "admin1Name": "Hiraan", "admin2Name": "Belet Weyne", "settlementClass": "IDP site (camp or camp-like setting)", "idpIndividuals": 1266, "idpHouseholds": 211, "populationCategory": "IDP", "inFlood": 1 }, "geometry": { "type": "Point", "coordinates": [ 45.218024300000103, 4.72880080000004 ] } },
{ "type": "Feature", "properties": { "settlementName": "Asal", "settlementDTMId": "DTM-SO2001-2759", "urbanName": "Belet Weyne", "admin1Name": "Hiraan", "admin2Name": "Belet Weyne", "settlementClass": "IDP site (camp or camp-like setting)", "idpIndividuals": 366, "idpHouseholds": 61, "populationCategory": "IDP", "inFlood": 1 }, "geometry": { "type": "Point", "coordinates": [ 45.1933688, 4.73132070000003 ] } },
{ "type": "Feature", "properties": { "settlementName": "Ayaan", "settlementDTMId": "DTM-SO2001-2760", "urbanName": "Belet Weyne", "admin1Name": "Hiraan", "admin2Name": "Belet Weyne", "settlementClass": "IDP site (camp or camp-like setting)", "idpIndividuals": 360, "idpHouseholds": 60, "populationCategory": "IDP", "inFlood": 1 }, "geometry": { "type": "Point", "coordinates": [ 45.2057546, 4.72567980000002 ] } },
{ "type": "Feature", "properties": { "settlementName": "Baaslaawe", "settlementDTMId": "DTM-SO2001-11884", "urbanName": "Belet Weyne", "admin1Name": "Hiraan", "admin2Name": "Belet Weyne", "settlementClass": "IDP site (camp or camp-like setting)", "idpIndividuals": 450, "idpHouseholds": 75, "populationCategory": "IDP", "inFlood": 1 }, "geometry": { "type": "Point", "coordinates": [ 45.1975781, 4.74365710000006 ] } },
{ "type": "Feature", "properties": { "settlementName": "Badar", "settlementDTMId": "DTM-SO2001-11849", "urbanName": "Belet Weyne", "admin1Name": "Hiraan", "admin2Name": "Belet Weyne", "settlementClass": "IDP site (camp or camp-like setting)", "idpIndividuals": 924, "idpHouseholds": 154, "populationCategory": "IDP", "inFlood": 1 }, "geometry": { "type": "Point", "coordinates": [ 45.1810748, 4.75182580000006 ] } },
{ "type": "Feature", "properties": { "settlementName": "Bakal IDP", "settlementDTMId": "DTM-SO2001-5662", "urbanName": "Belet Weyne", "admin1Name": "Hiraan", "admin2Name": "Belet Weyne", "settlementClass": "IDP site (camp or camp-like setting)", "idpIndividuals": 306, "idpHouseholds": 51, "populationCategory": "IDP", "inFlood": 1 }, "geometry": { "type": "Point", "coordinates": [ 45.220679200000099, 4.73808140000006 ] } },
{ "type": "Feature", "properties": { "settlementName": "Bakaleey", "settlementDTMId": "DTM-SO2001-11898", "urbanName": "Belet Weyne", "admin1Name": "Hiraan", "admin2Name": "Belet Weyne", "settlementClass": "IDP site (camp or camp-like setting)", "idpIndividuals": 306, "idpHouseholds": 51, "populationCategory": "IDP", "inFlood": 1 }, "geometry": { "type": "Point", "coordinates": [ 45.207796900000098, 4.75172050000003 ] } },
{ "type": "Feature", "properties": { "settlementName": "Banaadir", "settlementDTMId": "DTM-SO2001-11850", "urbanName": "Belet Weyne", "admin1Name": "Hiraan", "admin2Name": "Belet Weyne", "settlementClass": "IDP site (camp or camp-like setting)", "idpIndividuals": 306, "idpHouseholds": 51, "populationCategory": "IDP", "inFlood": 1 }, "geometry": { "type": "Point", "coordinates": [ 45.2213885, 4.74114990000004 ] } },
{ "type": "Feature", "properties": { "settlementName": "Bardaale (Beledweyne)", "settlementDTMId": "DTM-SO2001-2769", "urbanName": "Belet Weyne", "admin1Name": "Hiraan", "admin2Name": "Belet Weyne", "settlementClass": "IDP site (camp or camp-like setting)", "idpIndividuals": 366, "idpHouseholds": 61, "populationCategory": "IDP", "inFlood": 1 }, "geometry": { "type": "Point", "coordinates": [ 45.189941400000102, 4.73579830000006 ] } },
{ "type": "Feature", "properties": { "settlementName": "Bardaale (Kooshin)", "settlementDTMId": "DTM-SO2001-2768", "urbanName": "Belet Weyne", "admin1Name": "Hiraan", "admin2Name": "Belet Weyne", "settlementClass": "IDP site (camp or camp-like setting)", "idpIndividuals": 510, "idpHouseholds": 85, "populationCategory": "IDP", "inFlood": 1 }, "geometry": { "type": "Point", "coordinates": [ 45.1900204, 4.73567170000007 ] } },
{ "type": "Feature", "properties": { "settlementName": "Bardhiile", "settlementDTMId": "DTM-SO2001-11851", "urbanName": "Belet Weyne", "admin1Name": "Hiraan", "admin2Name": "Belet Weyne", "settlementClass": "IDP site (camp or camp-like setting)", "idpIndividuals": 306, "idpHouseholds": 51, "populationCategory": "IDP", "inFlood": 1 }, "geometry": { "type": "Point", "coordinates": [ 45.2023346, 4.72287010000002 ] } },
{ "type": "Feature", "properties": { "settlementName": "Barwaaqo", "settlementDTMId": "DTM-SO2001-2770", "urbanName": "Belet Weyne", "admin1Name": "Hiraan", "admin2Name": "Belet Weyne", "settlementClass": "IDP site (camp or camp-like setting)", "idpIndividuals": 1518, "idpHouseholds": 253, "populationCategory": "IDP", "inFlood": 1 }, "geometry": { "type": "Point", "coordinates": [ 45.217884400000102, 4.73308420000006 ] } },
{ "type": "Feature", "properties": { "settlementName": "Beerey", "settlementDTMId": "DTM-SO2001-11834", "urbanName": "Belet Weyne", "admin1Name": "Hiraan", "admin2Name": "Belet Weyne", "settlementClass": "IDP site (camp or camp-like setting)", "idpIndividuals": 426, "idpHouseholds": 71, "populationCategory": "IDP", "inFlood": 1 }, "geometry": { "type": "Point", "coordinates": [ 45.190402, 4.73478840000007 ] } },
{ "type": "Feature", "properties": { "settlementName": "Beled Salaama", "settlementDTMId": "DTM-SO2001-2771", "urbanName": "Belet Weyne", "admin1Name": "Hiraan", "admin2Name": "Belet Weyne", "settlementClass": "Host community (village or neighbourhood)", "idpIndividuals": 0, "idpHouseholds": 0, "populationCategory": "RES", "inFlood": 1 }, "geometry": { "type": "Point", "coordinates": [ 45.219274, 4.743343 ] } },
{ "type": "Feature", "properties": { "settlementName": "Bilaal", "settlementDTMId": "DTM-SO2001-11897", "urbanName": "Belet Weyne", "admin1Name": "Hiraan", "admin2Name": "Belet Weyne", "settlementClass": "IDP site (camp or camp-like setting)", "idpIndividuals": 300, "idpHouseholds": 50, "populationCategory": "IDP", "inFlood": 1 }, "geometry": { "type": "Point", "coordinates": [ 45.206717, 4.76718360000007 ] } },
{ "type": "Feature", "properties": { "settlementName": "Bilan 1", "settlementDTMId": "DTM-SO2001-2773", "urbanName": "Belet Weyne", "admin1Name": "Hiraan", "admin2Name": "Belet Weyne", "settlementClass": "IDP site (camp or camp-like setting)", "idpIndividuals": 450, "idpHouseholds": 75, "populationCategory": "IDP", "inFlood": 1 }, "geometry": { "type": "Point", "coordinates": [ 45.210325700000098, 4.736209 ] } },
{ "type": "Feature", "properties": { "settlementName": "Bilan 2", "settlementDTMId": "DTM-SO2001-2774", "urbanName": "Belet Weyne", "admin1Name": "Hiraan", "admin2Name": "Belet Weyne", "settlementClass": "IDP site (camp or camp-like setting)", "idpIndividuals": 1470, "idpHouseholds": 245, "populationCategory": "IDP", "inFlood": 1 }, "geometry": { "type": "Point", "coordinates": [ 45.2167691000001, 4.73232910000007 ] } },
{ "type": "Feature", "properties": { "settlementName": "Bilisdiid", "settlementDTMId": "DTM-SO2001-2775", "urbanName": "Belet Weyne", "admin1Name": "Hiraan", "admin2Name": "Belet Weyne", "settlementClass": "IDP site (camp or camp-like setting)", "idpIndividuals": 1530, "idpHouseholds": 255, "populationCategory": "IDP", "inFlood": 1 }, "geometry": { "type": "Point", "coordinates": [ 45.1987047000001, 4.74798280000005 ] } },
{ "type": "Feature", "properties": { "settlementName": "Birmaal", "settlementDTMId": "DTM-SO2001-2776", "urbanName": "Belet Weyne", "admin1Name": "Hiraan", "admin2Name": "Belet Weyne", "settlementClass": "IDP site (camp or camp-like setting)", "idpIndividuals": 1302, "idpHouseholds": 217, "populationCategory": "IDP", "inFlood": 1 }, "geometry": { "type": "Point", "coordinates": [ 45.222666000000103, 4.74275620000003 ] } },
{ "type": "Feature", "properties": { "settlementName": "Budul", "settlementDTMId": "DTM-SO2001-11844", "urbanName": "Belet Weyne", "admin1Name": "Hiraan", "admin2Name": "Belet Weyne", "settlementClass": "IDP site (camp or camp-like setting)", "idpIndividuals": 1470, "idpHouseholds": 245, "populationCategory": "IDP", "inFlood": 1 }, "geometry": { "type": "Point", "coordinates": [ 45.203215300000103, 4.75071070000007 ] } },
{ "type": "Feature", "properties": { "settlementName": "Bulsho", "settlementDTMId": "DTM-SO2001-2777", "urbanName": "Belet Weyne", "admin1Name": "Hiraan", "admin2Name": "Belet Weyne", "settlementClass": "IDP site (camp or camp-like setting)", "idpIndividuals": 1650, "idpHouseholds": 275, "populationCategory": "IDP", "inFlood": 1 }, "geometry": { "type": "Point", "coordinates": [ 45.1837498, 4.75278910000003 ] } },
{ "type": "Feature", "properties": { "settlementName": "Bulsho Bile", "settlementDTMId": "DTM-SO2001-11882", "urbanName": "Belet Weyne", "admin1Name": "Hiraan", "admin2Name": "Belet Weyne", "settlementClass": "IDP site (camp or camp-like setting)", "idpIndividuals": 306, "idpHouseholds": 51, "populationCategory": "IDP", "inFlood": 1 }, "geometry": { "type": "Point", "coordinates": [ 45.1870724, 4.75972520000005 ] } },
{ "type": "Feature", "properties": { "settlementName": "Bunda Wayn", "settlementDTMId": "DTM-SO2001-11831", "urbanName": "Belet Weyne", "admin1Name": "Hiraan", "admin2Name": "Belet Weyne", "settlementClass": "Host community (village or neighbourhood)", "idpIndividuals": 0, "idpHouseholds": 0, "populationCategory": "RES", "inFlood": 1 }, "geometry": { "type": "Point", "coordinates": [ 45.210407700000097, 4.73313 ] } },
{ "type": "Feature", "properties": { "settlementName": "Bur qaniinyo", "settlementDTMId": "DTM-SO2001-2778", "urbanName": "Belet Weyne", "admin1Name": "Hiraan", "admin2Name": "Belet Weyne", "settlementClass": "Host community (village or neighbourhood)", "idpIndividuals": 0, "idpHouseholds": 0, "populationCategory": "RES", "inFlood": 1 }, "geometry": { "type": "Point", "coordinates": [ 45.215234000000102, 4.742359 ] } },
{ "type": "Feature", "properties": { "settlementName": "Burjada-Ciinta", "settlementDTMId": "DTM-SO2001-2779", "urbanName": "Belet Weyne", "admin1Name": "Hiraan", "admin2Name": "Belet Weyne", "settlementClass": "Host community (village or neighbourhood)", "idpIndividuals": 0, "idpHouseholds": 0, "populationCategory": "RES", "inFlood": 1 }, "geometry": { "type": "Point", "coordinates": [ 45.17249, 4.71524 ] } },
{ "type": "Feature", "properties": { "settlementName": "Buulo Qorax", "settlementDTMId": "DTM-SO2001-11894", "urbanName": "Belet Weyne", "admin1Name": "Hiraan", "admin2Name": "Belet Weyne", "settlementClass": "IDP site (camp or camp-like setting)", "idpIndividuals": 1962, "idpHouseholds": 327, "populationCategory": "IDP", "inFlood": 1 }, "geometry": { "type": "Point", "coordinates": [ 45.1997446, 4.75057340000006 ] } },
{ "type": "Feature", "properties": { "settlementName": "Caadleey", "settlementDTMId": "DTM-SO2001-11888", "urbanName": "Belet Weyne", "admin1Name": "Hiraan", "admin2Name": "Belet Weyne", "settlementClass": "IDP site (camp or camp-like setting)", "idpIndividuals": 318, "idpHouseholds": 53, "populationCategory": "IDP", "inFlood": 1 }, "geometry": { "type": "Point", "coordinates": [ 45.222257200000101, 4.73997740000004 ] } },
{ "type": "Feature", "properties": { "settlementName": "Caadow", "settlementDTMId": "DTM-SO2001-11845", "urbanName": "Belet Weyne", "admin1Name": "Hiraan", "admin2Name": "Belet Weyne", "settlementClass": "IDP site (camp or camp-like setting)", "idpIndividuals": 312, "idpHouseholds": 52, "populationCategory": "IDP", "inFlood": 1 }, "geometry": { "type": "Point", "coordinates": [ 45.204630700000102, 4.72418720000007 ] } },
{ "type": "Feature", "properties": { "settlementName": "Caar Shabeel", "settlementDTMId": "DTM-SO2001-11891", "urbanName": "Belet Weyne", "admin1Name": "Hiraan", "admin2Name": "Belet Weyne", "settlementClass": "IDP site (camp or camp-like setting)", "idpIndividuals": 330, "idpHouseholds": 55, "populationCategory": "IDP", "inFlood": 1 }, "geometry": { "type": "Point", "coordinates": [ 45.205956200000102, 4.76186970000003 ] } },
{ "type": "Feature", "properties": { "settlementName": "Cadaani", "settlementDTMId": "DTM-SO2001-2783", "urbanName": "Belet Weyne", "admin1Name": "Hiraan", "admin2Name": "Belet Weyne", "settlementClass": "IDP site (camp or camp-like setting)", "idpIndividuals": 450, "idpHouseholds": 75, "populationCategory": "IDP", "inFlood": 1 }, "geometry": { "type": "Point", "coordinates": [ 45.2082793000001, 4.72138380000007 ] } },
{ "type": "Feature", "properties": { "settlementName": "Cadileey", "settlementDTMId": "DTM-SO2001-11835", "urbanName": "Belet Weyne", "admin1Name": "Hiraan", "admin2Name": "Belet Weyne", "settlementClass": "IDP site (camp or camp-like setting)", "idpIndividuals": 300, "idpHouseholds": 50, "populationCategory": "IDP", "inFlood": 1 }, "geometry": { "type": "Point", "coordinates": [ 45.205500100000101, 4.72283520000002 ] } },
{ "type": "Feature", "properties": { "settlementName": "Ceynabo", "settlementDTMId": "DTM-SO2001-2786", "urbanName": "Belet Weyne", "admin1Name": "Hiraan", "admin2Name": "Belet Weyne", "settlementClass": "IDP site (camp or camp-like setting)", "idpIndividuals": 816, "idpHouseholds": 136, "populationCategory": "IDP", "inFlood": 1 }, "geometry": { "type": "Point", "coordinates": [ 45.1872977, 4.75753810000003 ] } },
{ "type": "Feature", "properties": { "settlementName": "Cumar Moosle", "settlementDTMId": "DTM-SO2001-11896", "urbanName": "Belet Weyne", "admin1Name": "Hiraan", "admin2Name": "Belet Weyne", "settlementClass": "IDP site (camp or camp-like setting)", "idpIndividuals": 1290, "idpHouseholds": 215, "populationCategory": "IDP", "inFlood": 1 }, "geometry": { "type": "Point", "coordinates": [ 45.2095265, 4.72110640000005 ] } },
{ "type": "Feature", "properties": { "settlementName": "Daanyeere", "settlementDTMId": "DTM-SO2001-2789", "urbanName": "Belet Weyne", "admin1Name": "Hiraan", "admin2Name": "Belet Weyne", "settlementClass": "IDP site (camp or camp-like setting)", "idpIndividuals": 1086, "idpHouseholds": 181, "populationCategory": "IDP", "inFlood": 1 }, "geometry": { "type": "Point", "coordinates": [ 45.207075, 4.76223420000002 ] } },
{ "type": "Feature", "properties": { "settlementName": "Daryeel", "settlementDTMId": "DTM-SO2001-11846", "urbanName": "Belet Weyne", "admin1Name": "Hiraan", "admin2Name": "Belet Weyne", "settlementClass": "IDP site (camp or camp-like setting)", "idpIndividuals": 1200, "idpHouseholds": 200, "populationCategory": "IDP", "inFlood": 1 }, "geometry": { "type": "Point", "coordinates": [ 45.207624500000101, 4.72096640000007 ] } },
{ "type": "Feature", "properties": { "settlementName": "Daryeel B Yaquub", "settlementDTMId": "DTM-SO2001-2790", "urbanName": "Belet Weyne", "admin1Name": "Hiraan", "admin2Name": "Belet Weyne", "settlementClass": "IDP site (camp or camp-like setting)", "idpIndividuals": 906, "idpHouseholds": 151, "populationCategory": "IDP", "inFlood": 1 }, "geometry": { "type": "Point", "coordinates": [ 45.219579000000103, 4.72981090000007 ] } },
{ "type": "Feature", "properties": { "settlementName": "Daryeel Bundoweyn", "settlementDTMId": "DTM-SO2001-2791", "urbanName": "Belet Weyne", "admin1Name": "Hiraan", "admin2Name": "Belet Weyne", "settlementClass": "IDP site (camp or camp-like setting)", "idpIndividuals": 330, "idpHouseholds": 55, "populationCategory": "IDP", "inFlood": 1 }, "geometry": { "type": "Point", "coordinates": [ 45.217671300000099, 4.73324350000007 ] } },
{ "type": "Feature", "properties": { "settlementName": "Dayax Siigaalow", "settlementDTMId": "DTM-SO2001-2792", "urbanName": "Belet Weyne", "admin1Name": "Hiraan", "admin2Name": "Belet Weyne", "settlementClass": "IDP site (camp or camp-like setting)", "idpIndividuals": 1560, "idpHouseholds": 260, "populationCategory": "IDP", "inFlood": 1 }, "geometry": { "type": "Point", "coordinates": [ 45.186647100000101, 4.756131 ] } },
{ "type": "Feature", "properties": { "settlementName": "Dhadhaab", "settlementDTMId": "DTM-SO2001-11862", "urbanName": "Belet Weyne", "admin1Name": "Hiraan", "admin2Name": "Belet Weyne", "settlementClass": "IDP site (camp or camp-like setting)", "idpIndividuals": 444, "idpHouseholds": 74, "populationCategory": "IDP", "inFlood": 1 }, "geometry": { "type": "Point", "coordinates": [ 45.1952401, 4.72559650000005 ] } },
{ "type": "Feature", "properties": { "settlementName": "Dheylaale", "settlementDTMId": "DTM-SO2001-11886", "urbanName": "Belet Weyne", "admin1Name": "Hiraan", "admin2Name": "Belet Weyne", "settlementClass": "IDP site (camp or camp-like setting)", "idpIndividuals": 390, "idpHouseholds": 65, "populationCategory": "IDP", "inFlood": 1 }, "geometry": { "type": "Point", "coordinates": [ 45.187507600000103, 4.726565 ] } },
{ "type": "Feature", "properties": { "settlementName": "Doofil", "settlementDTMId": "DTM-SO2001-2795", "urbanName": "Belet Weyne", "admin1Name": "Hiraan", "admin2Name": "Belet Weyne", "settlementClass": "IDP site (camp or camp-like setting)", "idpIndividuals": 942, "idpHouseholds": 157, "populationCategory": "IDP", "inFlood": 1 }, "geometry": { "type": "Point", "coordinates": [ 45.185192100000101, 4.73404050000005 ] } },
{ "type": "Feature", "properties": { "settlementName": "Doomeey", "settlementDTMId": "DTM-SO2001-2796", "urbanName": "Belet Weyne", "admin1Name": "Hiraan", "admin2Name": "Belet Weyne", "settlementClass": "IDP site (camp or camp-like setting)", "idpIndividuals": 6200, "idpHouseholds": 1033, "populationCategory": "IDP", "inFlood": 1 }, "geometry": { "type": "Point", "coordinates": [ 45.2173987, 4.72921590000004 ] } },
{ "type": "Feature", "properties": { "settlementName": "Doongaduud", "settlementDTMId": "DTM-SO2001-2799", "urbanName": "Belet Weyne", "admin1Name": "Hiraan", "admin2Name": "Belet Weyne", "settlementClass": "IDP site (camp or camp-like setting)", "idpIndividuals": 558, "idpHouseholds": 93, "populationCategory": "IDP", "inFlood": 1 }, "geometry": { "type": "Point", "coordinates": [ 45.212267600000096, 4.74874210000007 ] } },
{ "type": "Feature", "properties": { "settlementName": "Doonka", "settlementDTMId": "DTM-SO2001-2800", "urbanName": "Belet Weyne", "admin1Name": "Hiraan", "admin2Name": "Belet Weyne", "settlementClass": "Host community (village or neighbourhood)", "idpIndividuals": 0, "idpHouseholds": 0, "populationCategory": "RES", "inFlood": 1 }, "geometry": { "type": "Point", "coordinates": [ 45.205175, 4.736858 ] } },
{ "type": "Feature", "properties": { "settlementName": "Doonsubagle Gaduudoow", "settlementDTMId": "DTM-SO2001-11836", "urbanName": "Belet Weyne", "admin1Name": "Hiraan", "admin2Name": "Belet Weyne", "settlementClass": "IDP site (camp or camp-like setting)", "idpIndividuals": 1800, "idpHouseholds": 300, "populationCategory": "IDP", "inFlood": 1 }, "geometry": { "type": "Point", "coordinates": [ 45.203286900000101, 4.72481430000005 ] } },
{ "type": "Feature", "properties": { "settlementName": "Doyale", "settlementDTMId": "DTM-SO2001-11852", "urbanName": "Belet Weyne", "admin1Name": "Hiraan", "admin2Name": "Belet Weyne", "settlementClass": "IDP site (camp or camp-like setting)", "idpIndividuals": 348, "idpHouseholds": 58, "populationCategory": "IDP", "inFlood": 1 }, "geometry": { "type": "Point", "coordinates": [ 45.1817412, 4.74514250000004 ] } },
{ "type": "Feature", "properties": { "settlementName": "Durdur", "settlementDTMId": "DTM-SO2001-11837", "urbanName": "Belet Weyne", "admin1Name": "Hiraan", "admin2Name": "Belet Weyne", "settlementClass": "IDP site (camp or camp-like setting)", "idpIndividuals": 330, "idpHouseholds": 55, "populationCategory": "IDP", "inFlood": 1 }, "geometry": { "type": "Point", "coordinates": [ 45.201206300000102, 4.72282020000006 ] } },
{ "type": "Feature", "properties": { "settlementName": "Durdur laabdheere", "settlementDTMId": "DTM-SO2001-11890", "urbanName": "Belet Weyne", "admin1Name": "Hiraan", "admin2Name": "Belet Weyne", "settlementClass": "IDP site (camp or camp-like setting)", "idpIndividuals": 306, "idpHouseholds": 51, "populationCategory": "IDP", "inFlood": 1 }, "geometry": { "type": "Point", "coordinates": [ 45.2307069, 4.73991230000007 ] } },
{ "type": "Feature", "properties": { "settlementName": "El - Ali", "settlementDTMId": "DTM-SO2001-2803", "urbanName": "Belet Weyne", "admin1Name": "Hiraan", "admin2Name": "Belet Weyne", "settlementClass": "IDP site (camp or camp-like setting)", "idpIndividuals": 1950, "idpHouseholds": 325, "populationCategory": "IDP", "inFlood": 1 }, "geometry": { "type": "Point", "coordinates": [ 45.1955048, 4.72464380000002 ] } },
{ "type": "Feature", "properties": { "settlementName": "Ex Suuqa Xoolaha", "settlementDTMId": "DTM-SO2001-11853", "urbanName": "Belet Weyne", "admin1Name": "Hiraan", "admin2Name": "Belet Weyne", "settlementClass": "IDP site (camp or camp-like setting)", "idpIndividuals": 342, "idpHouseholds": 57, "populationCategory": "IDP", "inFlood": 1 }, "geometry": { "type": "Point", "coordinates": [ 45.209112, 4.73771780000004 ] } },
{ "type": "Feature", "properties": { "settlementName": "Exairport", "settlementDTMId": "DTM-SO2001-2804", "urbanName": "Belet Weyne", "admin1Name": "Hiraan", "admin2Name": "Belet Weyne", "settlementClass": "IDP site (camp or camp-like setting)", "idpIndividuals": 3000, "idpHouseholds": 500, "populationCategory": "IDP", "inFlood": 1 }, "geometry": { "type": "Point", "coordinates": [ 45.190060200000097, 4.74025130000007 ] } },
{ "type": "Feature", "properties": { "settlementName": "Fatxi 1", "settlementDTMId": "DTM-SO2001-2807", "urbanName": "Belet Weyne", "admin1Name": "Hiraan", "admin2Name": "Belet Weyne", "settlementClass": "IDP site (camp or camp-like setting)", "idpIndividuals": 1020, "idpHouseholds": 170, "populationCategory": "IDP", "inFlood": 1 }, "geometry": { "type": "Point", "coordinates": [ 45.1921184, 4.733867 ] } },
{ "type": "Feature", "properties": { "settlementName": "Fatxi 2", "settlementDTMId": "DTM-SO2001-2808", "urbanName": "Belet Weyne", "admin1Name": "Hiraan", "admin2Name": "Belet Weyne", "settlementClass": "IDP site (camp or camp-like setting)", "idpIndividuals": 510, "idpHouseholds": 85, "populationCategory": "IDP", "inFlood": 1 }, "geometry": { "type": "Point", "coordinates": [ 45.1854132, 4.73558760000003 ] } },
{ "type": "Feature", "properties": { "settlementName": "Fatxi Kheyr", "settlementDTMId": "DTM-SO2001-2809", "urbanName": "Belet Weyne", "admin1Name": "Hiraan", "admin2Name": "Belet Weyne", "settlementClass": "IDP site (camp or camp-like setting)", "idpIndividuals": 180, "idpHouseholds": 30, "populationCategory": "IDP", "inFlood": 1 }, "geometry": { "type": "Point", "coordinates": [ 45.1852527, 4.73521020000004 ] } },
{ "type": "Feature", "properties": { "settlementName": "Gabooye 1", "settlementDTMId": "DTM-SO2001-2810", "urbanName": "Belet Weyne", "admin1Name": "Hiraan", "admin2Name": "Belet Weyne", "settlementClass": "IDP site (camp or camp-like setting)", "idpIndividuals": 990, "idpHouseholds": 165, "populationCategory": "IDP", "inFlood": 1 }, "geometry": { "type": "Point", "coordinates": [ 45.212856100000103, 4.75285240000005 ] } },
{ "type": "Feature", "properties": { "settlementName": "Gabooye 2", "settlementDTMId": "DTM-SO2001-2811", "urbanName": "Belet Weyne", "admin1Name": "Hiraan", "admin2Name": "Belet Weyne", "settlementClass": "IDP site (camp or camp-like setting)", "idpIndividuals": 360, "idpHouseholds": 60, "populationCategory": "IDP", "inFlood": 1 }, "geometry": { "type": "Point", "coordinates": [ 45.213813000000101, 4.73760360000006 ] } },
{ "type": "Feature", "properties": { "settlementName": "Galkacyo", "settlementDTMId": "DTM-SO2001-2812", "urbanName": "Belet Weyne", "admin1Name": "Hiraan", "admin2Name": "Belet Weyne", "settlementClass": "IDP site (camp or camp-like setting)", "idpIndividuals": 306, "idpHouseholds": 51, "populationCategory": "IDP", "inFlood": 1 }, "geometry": { "type": "Point", "coordinates": [ 45.187856700000097, 4.75875630000007 ] } },
{ "type": "Feature", "properties": { "settlementName": "Gambarlawe", "settlementDTMId": "DTM-SO2001-11868", "urbanName": "Belet Weyne", "admin1Name": "Hiraan", "admin2Name": "Belet Weyne", "settlementClass": "Host community (village or neighbourhood)", "idpIndividuals": 0, "idpHouseholds": 0, "populationCategory": "RES", "inFlood": 1 }, "geometry": { "type": "Point", "coordinates": [ 45.20348, 4.70568 ] } },
{ "type": "Feature", "properties": { "settlementName": "Gumar", "settlementDTMId": "DTM-SO2001-2815", "urbanName": "Belet Weyne", "admin1Name": "Hiraan", "admin2Name": "Belet Weyne", "settlementClass": "IDP site (camp or camp-like setting)", "idpIndividuals": 438, "idpHouseholds": 73, "populationCategory": "IDP", "inFlood": 1 }, "geometry": { "type": "Point", "coordinates": [ 45.218074100000102, 4.729865 ] } },
{ "type": "Feature", "properties": { "settlementName": "Gurmad Iyo Gargar", "settlementDTMId": "DTM-SO2001-2817", "urbanName": "Belet Weyne", "admin1Name": "Hiraan", "admin2Name": "Belet Weyne", "settlementClass": "IDP site (camp or camp-like setting)", "idpIndividuals": 1050, "idpHouseholds": 175, "populationCategory": "IDP", "inFlood": 1 }, "geometry": { "type": "Point", "coordinates": [ 45.20439, 4.74513920000004 ] } },
{ "type": "Feature", "properties": { "settlementName": "Guudlawe", "settlementDTMId": "DTM-SO2001-2818", "urbanName": "Belet Weyne", "admin1Name": "Hiraan", "admin2Name": "Belet Weyne", "settlementClass": "IDP site (camp or camp-like setting)", "idpIndividuals": 690, "idpHouseholds": 115, "populationCategory": "IDP", "inFlood": 1 }, "geometry": { "type": "Point", "coordinates": [ 45.2024787, 4.75848590000004 ] } },
{ "type": "Feature", "properties": { "settlementName": "Halgan", "settlementDTMId": "DTM-SO2001-11889", "urbanName": "Belet Weyne", "admin1Name": "Hiraan", "admin2Name": "Belet Weyne", "settlementClass": "IDP site (camp or camp-like setting)", "idpIndividuals": 306, "idpHouseholds": 51, "populationCategory": "IDP", "inFlood": 1 }, "geometry": { "type": "Point", "coordinates": [ 45.2211314, 4.73936640000005 ] } },
{ "type": "Feature", "properties": { "settlementName": "Harqaboobe", "settlementDTMId": "DTM-SO2001-11854", "urbanName": "Belet Weyne", "admin1Name": "Hiraan", "admin2Name": "Belet Weyne", "settlementClass": "IDP site (camp or camp-like setting)", "idpIndividuals": 438, "idpHouseholds": 73, "populationCategory": "IDP", "inFlood": 1 }, "geometry": { "type": "Point", "coordinates": [ 45.2053751, 4.76282950000007 ] } },
{ "type": "Feature", "properties": { "settlementName": "Heegan", "settlementDTMId": "DTM-SO2001-2820", "urbanName": "Belet Weyne", "admin1Name": "Hiraan", "admin2Name": "Belet Weyne", "settlementClass": "Host community (village or neighbourhood)", "idpIndividuals": 0, "idpHouseholds": 0, "populationCategory": "RES", "inFlood": 1 }, "geometry": { "type": "Point", "coordinates": [ 45.1989184, 4.730648 ] } },
{ "type": "Feature", "properties": { "settlementName": "Hilaal", "settlementDTMId": "DTM-SO2001-11883", "urbanName": "Belet Weyne", "admin1Name": "Hiraan", "admin2Name": "Belet Weyne", "settlementClass": "IDP site (camp or camp-like setting)", "idpIndividuals": 306, "idpHouseholds": 51, "populationCategory": "IDP", "inFlood": 1 }, "geometry": { "type": "Point", "coordinates": [ 45.1899415, 4.75135920000002 ] } },
{ "type": "Feature", "properties": { "settlementName": "Horseed", "settlementDTMId": "DTM-SO2001-11870", "urbanName": "Belet Weyne", "admin1Name": "Hiraan", "admin2Name": "Belet Weyne", "settlementClass": "Host community (village or neighbourhood)", "idpIndividuals": 0, "idpHouseholds": 0, "populationCategory": "RES", "inFlood": 1 }, "geometry": { "type": "Point", "coordinates": [ 45.209233400000102, 4.7349 ] } },
{ "type": "Feature", "properties": { "settlementName": "Horyal", "settlementDTMId": "DTM-SO2001-2822", "urbanName": "Belet Weyne", "admin1Name": "Hiraan", "admin2Name": "Belet Weyne", "settlementClass": "IDP site (camp or camp-like setting)", "idpIndividuals": 660, "idpHouseholds": 110, "populationCategory": "IDP", "inFlood": 1 }, "geometry": { "type": "Point", "coordinates": [ 45.2313956, 4.74037280000005 ] } },
{ "type": "Feature", "properties": { "settlementName": "Howlwadaag", "settlementDTMId": "DTM-SO2001-11871", "urbanName": "Belet Weyne", "admin1Name": "Hiraan", "admin2Name": "Belet Weyne", "settlementClass": "Host community (village or neighbourhood)", "idpIndividuals": 0, "idpHouseholds": 0, "populationCategory": "RES", "inFlood": 1 }, "geometry": { "type": "Point", "coordinates": [ 45.1978012000001, 4.73779960000007 ] } },
{ "type": "Feature", "properties": { "settlementName": "If iyo Aakhiro", "settlementDTMId": "DTM-SO2001-11895", "urbanName": "Belet Weyne", "admin1Name": "Hiraan", "admin2Name": "Belet Weyne", "settlementClass": "IDP site (camp or camp-like setting)", "idpIndividuals": 450, "idpHouseholds": 75, "populationCategory": "IDP", "inFlood": 1 }, "geometry": { "type": "Point", "coordinates": [ 45.201616600000101, 4.72333870000006 ] } },
{ "type": "Feature", "properties": { "settlementName": "Iftin", "settlementDTMId": "DTM-SO2001-2824", "urbanName": "Belet Weyne", "admin1Name": "Hiraan", "admin2Name": "Belet Weyne", "settlementClass": "IDP site (camp or camp-like setting)", "idpIndividuals": 1632, "idpHouseholds": 272, "populationCategory": "IDP", "inFlood": 1 }, "geometry": { "type": "Point", "coordinates": [ 45.189390800000098, 4.75402380000003 ] } },
{ "type": "Feature", "properties": { "settlementName": "Iftin Labdheere", "settlementDTMId": "DTM-SO2001-11855", "urbanName": "Belet Weyne", "admin1Name": "Hiraan", "admin2Name": "Belet Weyne", "settlementClass": "IDP site (camp or camp-like setting)", "idpIndividuals": 750, "idpHouseholds": 125, "populationCategory": "IDP", "inFlood": 1 }, "geometry": { "type": "Point", "coordinates": [ 45.2132996, 4.73260950000002 ] } },
{ "type": "Feature", "properties": { "settlementName": "Jabaanjiblow", "settlementDTMId": "DTM-SO2001-2827", "urbanName": "Belet Weyne", "admin1Name": "Hiraan", "admin2Name": "Belet Weyne", "settlementClass": "IDP site (camp or camp-like setting)", "idpIndividuals": 312, "idpHouseholds": 52, "populationCategory": "IDP", "inFlood": 1 }, "geometry": { "type": "Point", "coordinates": [ 45.203151300000101, 4.72354230000008 ] } },
{ "type": "Feature", "properties": { "settlementName": "Jiiqle", "settlementDTMId": "DTM-SO2001-2829", "urbanName": "Belet Weyne", "admin1Name": "Hiraan", "admin2Name": "Belet Weyne", "settlementClass": "IDP site (camp or camp-like setting)", "idpIndividuals": 390, "idpHouseholds": 65, "populationCategory": "IDP", "inFlood": 1 }, "geometry": { "type": "Point", "coordinates": [ 45.218663600000099, 4.73001020000004 ] } },
{ "type": "Feature", "properties": { "settlementName": "Jiiqleey Idp", "settlementDTMId": "DTM-SO2001-11856", "urbanName": "Belet Weyne", "admin1Name": "Hiraan", "admin2Name": "Belet Weyne", "settlementClass": "IDP site (camp or camp-like setting)", "idpIndividuals": 438, "idpHouseholds": 73, "populationCategory": "IDP", "inFlood": 1 }, "geometry": { "type": "Point", "coordinates": [ 45.2213561, 4.73009740000003 ] } },
{ "type": "Feature", "properties": { "settlementName": "Jinawkey", "settlementDTMId": "DTM-SO2001-2830", "urbanName": "Belet Weyne", "admin1Name": "Hiraan", "admin2Name": "Belet Weyne", "settlementClass": "IDP site (camp or camp-like setting)", "idpIndividuals": 330, "idpHouseholds": 55, "populationCategory": "IDP", "inFlood": 1 }, "geometry": { "type": "Point", "coordinates": [ 45.2076232000001, 4.72489330000008 ] } },
{ "type": "Feature", "properties": { "settlementName": "Jumbur", "settlementDTMId": "DTM-SO2001-2832", "urbanName": "Belet Weyne", "admin1Name": "Hiraan", "admin2Name": "Belet Weyne", "settlementClass": "IDP site (camp or camp-like setting)", "idpIndividuals": 540, "idpHouseholds": 90, "populationCategory": "IDP", "inFlood": 1 }, "geometry": { "type": "Point", "coordinates": [ 45.209949300000098, 4.72075610000007 ] } },
{ "type": "Feature", "properties": { "settlementName": "Kalkaal", "settlementDTMId": "DTM-SO2001-11857", "urbanName": "Belet Weyne", "admin1Name": "Hiraan", "admin2Name": "Belet Weyne", "settlementClass": "IDP site (camp or camp-like setting)", "idpIndividuals": 522, "idpHouseholds": 87, "populationCategory": "IDP", "inFlood": 1 }, "geometry": { "type": "Point", "coordinates": [ 45.2182892000001, 4.726603 ] } },
{ "type": "Feature", "properties": { "settlementName": "Kalundi", "settlementDTMId": "DTM-SO2001-2836", "urbanName": "Belet Weyne", "admin1Name": "Hiraan", "admin2Name": "Belet Weyne", "settlementClass": "IDP site (camp or camp-like setting)", "idpIndividuals": 312, "idpHouseholds": 52, "populationCategory": "IDP", "inFlood": 1 }, "geometry": { "type": "Point", "coordinates": [ 45.1846392, 4.75623690000003 ] } },
{ "type": "Feature", "properties": { "settlementName": "Kaxare", "settlementDTMId": "DTM-SO2001-2837", "urbanName": "Belet Weyne", "admin1Name": "Hiraan", "admin2Name": "Belet Weyne", "settlementClass": "IDP site (camp or camp-like setting)", "idpIndividuals": 306, "idpHouseholds": 51, "populationCategory": "IDP", "inFlood": 1 }, "geometry": { "type": "Point", "coordinates": [ 45.202207900000097, 4.75968130000007 ] } },
{ "type": "Feature", "properties": { "settlementName": "Koshin", "settlementDTMId": "DTM-SO2001-11876", "urbanName": "Belet Weyne", "admin1Name": "Hiraan", "admin2Name": "Belet Weyne", "settlementClass": "Host community (village or neighbourhood)", "idpIndividuals": 0, "idpHouseholds": 0, "populationCategory": "RES", "inFlood": 1 }, "geometry": { "type": "Point", "coordinates": [ 45.2038667, 4.73722560000004 ] } },
{ "type": "Feature", "properties": { "settlementName": "Kulan", "settlementDTMId": "DTM-SO2001-2838", "urbanName": "Belet Weyne", "admin1Name": "Hiraan", "admin2Name": "Belet Weyne", "settlementClass": "IDP site (camp or camp-like setting)", "idpIndividuals": 306, "idpHouseholds": 51, "populationCategory": "IDP", "inFlood": 1 }, "geometry": { "type": "Point", "coordinates": [ 45.1882704000001, 4.73638910000005 ] } },
{ "type": "Feature", "properties": { "settlementName": "Kulmiye", "settlementDTMId": "DTM-SO2001-2839", "urbanName": "Belet Weyne", "admin1Name": "Hiraan", "admin2Name": "Belet Weyne", "settlementClass": "IDP site (camp or camp-like setting)", "idpIndividuals": 510, "idpHouseholds": 85, "populationCategory": "IDP", "inFlood": 1 }, "geometry": { "type": "Point", "coordinates": [ 45.2168662, 4.72752480000003 ] } },
{ "type": "Feature", "properties": { "settlementName": "Kumasaar", "settlementDTMId": "DTM-SO2001-11863", "urbanName": "Belet Weyne", "admin1Name": "Hiraan", "admin2Name": "Belet Weyne", "settlementClass": "IDP site (camp or camp-like setting)", "idpIndividuals": 510, "idpHouseholds": 85, "populationCategory": "IDP", "inFlood": 1 }, "geometry": { "type": "Point", "coordinates": [ 45.2063841, 4.75468940000007 ] } },
{ "type": "Feature", "properties": { "settlementName": "Kunaso", "settlementDTMId": "DTM-SO2001-11892", "urbanName": "Belet Weyne", "admin1Name": "Hiraan", "admin2Name": "Belet Weyne", "settlementClass": "IDP site (camp or camp-like setting)", "idpIndividuals": 450, "idpHouseholds": 75, "populationCategory": "IDP", "inFlood": 1 }, "geometry": { "type": "Point", "coordinates": [ 45.2007227, 4.75896560000007 ] } },
{ "type": "Feature", "properties": { "settlementName": "Kutimbo", "settlementDTMId": "DTM-SO2001-11838", "urbanName": "Belet Weyne", "admin1Name": "Hiraan", "admin2Name": "Belet Weyne", "settlementClass": "IDP site (camp or camp-like setting)", "idpIndividuals": 570, "idpHouseholds": 95, "populationCategory": "IDP", "inFlood": 1 }, "geometry": { "type": "Point", "coordinates": [ 45.2083060000001, 4.75660610000006 ] } },
{ "type": "Feature", "properties": { "settlementName": "Lafweyn", "settlementDTMId": "DTM-SO2001-2841", "urbanName": "Belet Weyne", "admin1Name": "Hiraan", "admin2Name": "Belet Weyne", "settlementClass": "IDP site (camp or camp-like setting)", "idpIndividuals": 420, "idpHouseholds": 70, "populationCategory": "IDP", "inFlood": 1 }, "geometry": { "type": "Point", "coordinates": [ 45.2109372, 4.73487130000007 ] } },
{ "type": "Feature", "properties": { "settlementName": "Macruuf IDP", "settlementDTMId": "DTM-SO2001-2845", "urbanName": "Belet Weyne", "admin1Name": "Hiraan", "admin2Name": "Belet Weyne", "settlementClass": "IDP site (camp or camp-like setting)", "idpIndividuals": 900, "idpHouseholds": 150, "populationCategory": "IDP", "inFlood": 1 }, "geometry": { "type": "Point", "coordinates": [ 45.183651500000103, 4.75728030000005 ] } },
{ "type": "Feature", "properties": { "settlementName": "Matanaha", "settlementDTMId": "DTM-SO2001-2847", "urbanName": "Belet Weyne", "admin1Name": "Hiraan", "admin2Name": "Belet Weyne", "settlementClass": "IDP site (camp or camp-like setting)", "idpIndividuals": 1080, "idpHouseholds": 180, "populationCategory": "IDP", "inFlood": 1 }, "geometry": { "type": "Point", "coordinates": [ 45.196764400000099, 4.72563530000002 ] } },
{ "type": "Feature", "properties": { "settlementName": "Midnimo", "settlementDTMId": "DTM-SO2001-2848", "urbanName": "Belet Weyne", "admin1Name": "Hiraan", "admin2Name": "Belet Weyne", "settlementClass": "IDP site (camp or camp-like setting)", "idpIndividuals": 2800, "idpHouseholds": 467, "populationCategory": "IDP", "inFlood": 1 }, "geometry": { "type": "Point", "coordinates": [ 45.2067696, 4.72188020000004 ] } },
{ "type": "Feature", "properties": { "settlementName": "Mubarak", "settlementDTMId": "DTM-SO2001-2849", "urbanName": "Belet Weyne", "admin1Name": "Hiraan", "admin2Name": "Belet Weyne", "settlementClass": "IDP site (camp or camp-like setting)", "idpIndividuals": 492, "idpHouseholds": 82, "populationCategory": "IDP", "inFlood": 1 }, "geometry": { "type": "Point", "coordinates": [ 45.188387, 4.73772660000003 ] } },
{ "type": "Feature", "properties": { "settlementName": "Mucaad", "settlementDTMId": "DTM-SO2001-11858", "urbanName": "Belet Weyne", "admin1Name": "Hiraan", "admin2Name": "Belet Weyne", "settlementClass": "IDP site (camp or camp-like setting)", "idpIndividuals": 390, "idpHouseholds": 65, "populationCategory": "IDP", "inFlood": 1 }, "geometry": { "type": "Point", "coordinates": [ 45.217053200000102, 4.72744570000003 ] } },
{ "type": "Feature", "properties": { "settlementName": "Nagarweyne", "settlementDTMId": "DTM-SO2001-11839", "urbanName": "Belet Weyne", "admin1Name": "Hiraan", "admin2Name": "Belet Weyne", "settlementClass": "IDP site (camp or camp-like setting)", "idpIndividuals": 306, "idpHouseholds": 51, "populationCategory": "IDP", "inFlood": 1 }, "geometry": { "type": "Point", "coordinates": [ 45.181019, 4.75510790000004 ] } },
{ "type": "Feature", "properties": { "settlementName": "Najax", "settlementDTMId": "DTM-SO2001-11840", "urbanName": "Belet Weyne", "admin1Name": "Hiraan", "admin2Name": "Belet Weyne", "settlementClass": "IDP site (camp or camp-like setting)", "idpIndividuals": 1128, "idpHouseholds": 188, "populationCategory": "IDP", "inFlood": 1 }, "geometry": { "type": "Point", "coordinates": [ 45.2074603, 4.76078290000004 ] } },
{ "type": "Feature", "properties": { "settlementName": "Nasiib", "settlementDTMId": "DTM-SO2001-2850", "urbanName": "Belet Weyne", "admin1Name": "Hiraan", "admin2Name": "Belet Weyne", "settlementClass": "IDP site (camp or camp-like setting)", "idpIndividuals": 2000, "idpHouseholds": 333, "populationCategory": "IDP", "inFlood": 1 }, "geometry": { "type": "Point", "coordinates": [ 45.1811094, 4.73307380000006 ] } },
{ "type": "Feature", "properties": { "settlementName": "Nasri 2", "settlementDTMId": "DTM-SO2001-2851", "urbanName": "Belet Weyne", "admin1Name": "Hiraan", "admin2Name": "Belet Weyne", "settlementClass": "IDP site (camp or camp-like setting)", "idpIndividuals": 1092, "idpHouseholds": 182, "populationCategory": "IDP", "inFlood": 1 }, "geometry": { "type": "Point", "coordinates": [ 45.1862043, 4.75866150000007 ] } },
{ "type": "Feature", "properties": { "settlementName": "Nasteho", "settlementDTMId": "DTM-SO2001-2852", "urbanName": "Belet Weyne", "admin1Name": "Hiraan", "admin2Name": "Belet Weyne", "settlementClass": "IDP site (camp or camp-like setting)", "idpIndividuals": 1230, "idpHouseholds": 205, "populationCategory": "IDP", "inFlood": 1 }, "geometry": { "type": "Point", "coordinates": [ 45.209514300000102, 4.75891820000004 ] } },
{ "type": "Feature", "properties": { "settlementName": "Qaatumo", "settlementDTMId": "DTM-SO2001-2854", "urbanName": "Belet Weyne", "admin1Name": "Hiraan", "admin2Name": "Belet Weyne", "settlementClass": "IDP site (camp or camp-like setting)", "idpIndividuals": 546, "idpHouseholds": 91, "populationCategory": "IDP", "inFlood": 1 }, "geometry": { "type": "Point", "coordinates": [ 45.1941038000001, 4.73593080000006 ] } },
{ "type": "Feature", "properties": { "settlementName": "Qaboobe", "settlementDTMId": "DTM-SO2001-2855", "urbanName": "Belet Weyne", "admin1Name": "Hiraan", "admin2Name": "Belet Weyne", "settlementClass": "IDP site (camp or camp-like setting)", "idpIndividuals": 744, "idpHouseholds": 124, "populationCategory": "IDP", "inFlood": 1 }, "geometry": { "type": "Point", "coordinates": [ 45.2049904, 4.76114510000002 ] } },
{ "type": "Feature", "properties": { "settlementName": "Qalafe", "settlementDTMId": "DTM-SO2001-2856", "urbanName": "Belet Weyne", "admin1Name": "Hiraan", "admin2Name": "Belet Weyne", "settlementClass": "IDP site (camp or camp-like setting)", "idpIndividuals": 510, "idpHouseholds": 85, "populationCategory": "IDP", "inFlood": 1 }, "geometry": { "type": "Point", "coordinates": [ 45.2023303, 4.76465350000007 ] } },
{ "type": "Feature", "properties": { "settlementName": "Qilaaf-Laawe", "settlementDTMId": "DTM-SO2001-5664", "urbanName": "Belet Weyne", "admin1Name": "Hiraan", "admin2Name": "Belet Weyne", "settlementClass": "IDP site (camp or camp-like setting)", "idpIndividuals": 312, "idpHouseholds": 52, "populationCategory": "IDP", "inFlood": 1 }, "geometry": { "type": "Point", "coordinates": [ 45.2062795000001, 4.76810790000008 ] } },
{ "type": "Feature", "properties": { "settlementName": "Quracley", "settlementDTMId": "DTM-SO2001-11899", "urbanName": "Belet Weyne", "admin1Name": "Hiraan", "admin2Name": "Belet Weyne", "settlementClass": "Host community (village or neighbourhood)", "idpIndividuals": 0, "idpHouseholds": 0, "populationCategory": "RES", "inFlood": 1 }, "geometry": { "type": "Point", "coordinates": [ 45.21082, 4.70632 ] } },
{ "type": "Feature", "properties": { "settlementName": "Raage Iidle", "settlementDTMId": "DTM-SO2001-2860", "urbanName": "Belet Weyne", "admin1Name": "Hiraan", "admin2Name": "Belet Weyne", "settlementClass": "IDP site (camp or camp-like setting)", "idpIndividuals": 1200, "idpHouseholds": 200, "populationCategory": "IDP", "inFlood": 1 }, "geometry": { "type": "Point", "coordinates": [ 45.2018081000001, 4.72382540000007 ] } },
{ "type": "Feature", "properties": { "settlementName": "Raamoole", "settlementDTMId": "DTM-SO2001-11887", "urbanName": "Belet Weyne", "admin1Name": "Hiraan", "admin2Name": "Belet Weyne", "settlementClass": "IDP site (camp or camp-like setting)", "idpIndividuals": 330, "idpHouseholds": 55, "populationCategory": "IDP", "inFlood": 1 }, "geometry": { "type": "Point", "coordinates": [ 45.1994294, 4.74117750000005 ] } },
{ "type": "Feature", "properties": { "settlementName": "Rajo 1", "settlementDTMId": "DTM-SO2001-2861", "urbanName": "Belet Weyne", "admin1Name": "Hiraan", "admin2Name": "Belet Weyne", "settlementClass": "IDP site (camp or camp-like setting)", "idpIndividuals": 306, "idpHouseholds": 51, "populationCategory": "IDP", "inFlood": 1 }, "geometry": { "type": "Point", "coordinates": [ 45.205532300000101, 4.72843060000002 ] } },
{ "type": "Feature", "properties": { "settlementName": "Rajo2", "settlementDTMId": "DTM-SO2001-2862", "urbanName": "Belet Weyne", "admin1Name": "Hiraan", "admin2Name": "Belet Weyne", "settlementClass": "IDP site (camp or camp-like setting)", "idpIndividuals": 1092, "idpHouseholds": 182, "populationCategory": "IDP", "inFlood": 1 }, "geometry": { "type": "Point", "coordinates": [ 45.1826877, 4.73645910000005 ] } },
{ "type": "Feature", "properties": { "settlementName": "Rasmi", "settlementDTMId": "DTM-SO2001-11859", "urbanName": "Belet Weyne", "admin1Name": "Hiraan", "admin2Name": "Belet Weyne", "settlementClass": "IDP site (camp or camp-like setting)", "idpIndividuals": 306, "idpHouseholds": 51, "populationCategory": "IDP", "inFlood": 1 }, "geometry": { "type": "Point", "coordinates": [ 45.2095427, 4.75819780000006 ] } },
{ "type": "Feature", "properties": { "settlementName": "Shabele", "settlementDTMId": "DTM-SO2001-2863", "urbanName": "Belet Weyne", "admin1Name": "Hiraan", "admin2Name": "Belet Weyne", "settlementClass": "IDP site (camp or camp-like setting)", "idpIndividuals": 1944, "idpHouseholds": 324, "populationCategory": "IDP", "inFlood": 1 }, "geometry": { "type": "Point", "coordinates": [ 45.2033623, 4.76332650000006 ] } },
{ "type": "Feature", "properties": { "settlementName": "Shabeloow", "settlementDTMId": "DTM-SO2001-2864", "urbanName": "Belet Weyne", "admin1Name": "Hiraan", "admin2Name": "Belet Weyne", "settlementClass": "IDP site (camp or camp-like setting)", "idpIndividuals": 330, "idpHouseholds": 55, "populationCategory": "IDP", "inFlood": 1 }, "geometry": { "type": "Point", "coordinates": [ 45.2149795, 4.72970960000004 ] } },
{ "type": "Feature", "properties": { "settlementName": "Shahmacan", "settlementDTMId": "DTM-SO2001-5665", "urbanName": "Belet Weyne", "admin1Name": "Hiraan", "admin2Name": "Belet Weyne", "settlementClass": "IDP site (camp or camp-like setting)", "idpIndividuals": 306, "idpHouseholds": 51, "populationCategory": "IDP", "inFlood": 1 }, "geometry": { "type": "Point", "coordinates": [ 45.2202023, 4.73852310000007 ] } },
{ "type": "Feature", "properties": { "settlementName": "Shareeco", "settlementDTMId": "DTM-SO2001-11847", "urbanName": "Belet Weyne", "admin1Name": "Hiraan", "admin2Name": "Belet Weyne", "settlementClass": "IDP site (camp or camp-like setting)", "idpIndividuals": 120, "idpHouseholds": 20, "populationCategory": "IDP", "inFlood": 1 }, "geometry": { "type": "Point", "coordinates": [ 45.2085168, 4.72300780000006 ] } },
{ "type": "Feature", "properties": { "settlementName": "Shiil wanaag", "settlementDTMId": "DTM-SO2001-11893", "urbanName": "Belet Weyne", "admin1Name": "Hiraan", "admin2Name": "Belet Weyne", "settlementClass": "IDP site (camp or camp-like setting)", "idpIndividuals": 306, "idpHouseholds": 51, "populationCategory": "IDP", "inFlood": 1 }, "geometry": { "type": "Point", "coordinates": [ 45.202841900000102, 4.74221420000003 ] } },
{ "type": "Feature", "properties": { "settlementName": "Shiilow", "settlementDTMId": "DTM-SO2001-2865", "urbanName": "Belet Weyne", "admin1Name": "Hiraan", "admin2Name": "Belet Weyne", "settlementClass": "IDP site (camp or camp-like setting)", "idpIndividuals": 900, "idpHouseholds": 150, "populationCategory": "IDP", "inFlood": 1 }, "geometry": { "type": "Point", "coordinates": [ 45.181207700000101, 4.73480670000004 ] } },
{ "type": "Feature", "properties": { "settlementName": "Showli", "settlementDTMId": "DTM-SO2001-2868", "urbanName": "Belet Weyne", "admin1Name": "Hiraan", "admin2Name": "Belet Weyne", "settlementClass": "IDP site (camp or camp-like setting)", "idpIndividuals": 450, "idpHouseholds": 75, "populationCategory": "IDP", "inFlood": 1 }, "geometry": { "type": "Point", "coordinates": [ 45.2054781000001, 4.72230850000005 ] } },
{ "type": "Feature", "properties": { "settlementName": "Sigaalow Qayr Qabe", "settlementDTMId": "DTM-SO2001-11860", "urbanName": "Belet Weyne", "admin1Name": "Hiraan", "admin2Name": "Belet Weyne", "settlementClass": "IDP site (camp or camp-like setting)", "idpIndividuals": 396, "idpHouseholds": 66, "populationCategory": "IDP", "inFlood": 1 }, "geometry": { "type": "Point", "coordinates": [ 45.1929373, 4.74880690000003 ] } },
{ "type": "Feature", "properties": { "settlementName": "Siigaalow", "settlementDTMId": "DTM-SO2001-2870", "urbanName": "Belet Weyne", "admin1Name": "Hiraan", "admin2Name": "Belet Weyne", "settlementClass": "Host community (village or neighbourhood)", "idpIndividuals": 0, "idpHouseholds": 0, "populationCategory": "RES", "inFlood": 1 }, "geometry": { "type": "Point", "coordinates": [ 45.187662600000102, 4.75673630000006 ] } },
{ "type": "Feature", "properties": { "settlementName": "Sugoow", "settlementDTMId": "DTM-SO2001-11841", "urbanName": "Belet Weyne", "admin1Name": "Hiraan", "admin2Name": "Belet Weyne", "settlementClass": "IDP site (camp or camp-like setting)", "idpIndividuals": 414, "idpHouseholds": 69, "populationCategory": "IDP", "inFlood": 1 }, "geometry": { "type": "Point", "coordinates": [ 45.2014389, 4.75814690000004 ] } },
{ "type": "Feature", "properties": { "settlementName": "Tawakal Sigalow", "settlementDTMId": "DTM-SO2001-2872", "urbanName": "Belet Weyne", "admin1Name": "Hiraan", "admin2Name": "Belet Weyne", "settlementClass": "IDP site (camp or camp-like setting)", "idpIndividuals": 1302, "idpHouseholds": 217, "populationCategory": "IDP", "inFlood": 1 }, "geometry": { "type": "Point", "coordinates": [ 45.1841439, 4.75425920000004 ] } },
{ "type": "Feature", "properties": { "settlementName": "Tawakal-Nuriyo", "settlementDTMId": "DTM-SO2001-11861", "urbanName": "Belet Weyne", "admin1Name": "Hiraan", "admin2Name": "Belet Weyne", "settlementClass": "IDP site (camp or camp-like setting)", "idpIndividuals": 2274, "idpHouseholds": 379, "populationCategory": "IDP", "inFlood": 1 }, "geometry": { "type": "Point", "coordinates": [ 45.2022156, 4.72170680000005 ] } },
{ "type": "Feature", "properties": { "settlementName": "Tawakal2", "settlementDTMId": "DTM-SO2001-2873", "urbanName": "Belet Weyne", "admin1Name": "Hiraan", "admin2Name": "Belet Weyne", "settlementClass": "IDP site (camp or camp-like setting)", "idpIndividuals": 1600, "idpHouseholds": 267, "populationCategory": "IDP", "inFlood": 1 }, "geometry": { "type": "Point", "coordinates": [ 45.183968800000102, 4.754432 ] } },
{ "type": "Feature", "properties": { "settlementName": "Towfiiq", "settlementDTMId": "DTM-SO2001-2874", "urbanName": "Belet Weyne", "admin1Name": "Hiraan", "admin2Name": "Belet Weyne", "settlementClass": "IDP site (camp or camp-like setting)", "idpIndividuals": 900, "idpHouseholds": 150, "populationCategory": "IDP", "inFlood": 1 }, "geometry": { "type": "Point", "coordinates": [ 45.2048635, 4.72791370000004 ] } },
{ "type": "Feature", "properties": { "settlementName": "Wabi-Shabele", "settlementDTMId": "DTM-SO2001-2876", "urbanName": "Belet Weyne", "admin1Name": "Hiraan", "admin2Name": "Belet Weyne", "settlementClass": "IDP site (camp or camp-like setting)", "idpIndividuals": 1100, "idpHouseholds": 183, "populationCategory": "IDP", "inFlood": 1 }, "geometry": { "type": "Point", "coordinates": [ 45.211888100000102, 4.74656150000004 ] } },
{ "type": "Feature", "properties": { "settlementName": "Wadajir IDP", "settlementDTMId": "DTM-SO2001-2877", "urbanName": "Belet Weyne", "admin1Name": "Hiraan", "admin2Name": "Belet Weyne", "settlementClass": "IDP site (camp or camp-like setting)", "idpIndividuals": 678, "idpHouseholds": 113, "populationCategory": "IDP", "inFlood": 1 }, "geometry": { "type": "Point", "coordinates": [ 45.2223256, 4.74151870000003 ] } },
{ "type": "Feature", "properties": { "settlementName": "Wadajir Kooshin", "settlementDTMId": "DTM-SO2001-2878", "urbanName": "Belet Weyne", "admin1Name": "Hiraan", "admin2Name": "Belet Weyne", "settlementClass": "IDP site (camp or camp-like setting)", "idpIndividuals": 318, "idpHouseholds": 53, "populationCategory": "IDP", "inFlood": 1 }, "geometry": { "type": "Point", "coordinates": [ 45.2085625, 4.75079 ] } },
{ "type": "Feature", "properties": { "settlementName": "Waruube", "settlementDTMId": "DTM-SO2001-11842", "urbanName": "Belet Weyne", "admin1Name": "Hiraan", "admin2Name": "Belet Weyne", "settlementClass": "IDP site (camp or camp-like setting)", "idpIndividuals": 792, "idpHouseholds": 132, "populationCategory": "IDP", "inFlood": 1 }, "geometry": { "type": "Point", "coordinates": [ 45.2187643, 4.72756160000006 ] } },
{ "type": "Feature", "properties": { "settlementName": "Xalane", "settlementDTMId": "DTM-SO2001-11843", "urbanName": "Belet Weyne", "admin1Name": "Hiraan", "admin2Name": "Belet Weyne", "settlementClass": "IDP site (camp or camp-like setting)", "idpIndividuals": 306, "idpHouseholds": 51, "populationCategory": "IDP", "inFlood": 1 }, "geometry": { "type": "Point", "coordinates": [ 45.2118624, 4.74654140000007 ] } },
{ "type": "Feature", "properties": { "settlementName": "Xaliye", "settlementDTMId": "DTM-SO2001-2879", "urbanName": "Belet Weyne", "admin1Name": "Hiraan", "admin2Name": "Belet Weyne", "settlementClass": "IDP site (camp or camp-like setting)", "idpIndividuals": 810, "idpHouseholds": 135, "populationCategory": "IDP", "inFlood": 1 }, "geometry": { "type": "Point", "coordinates": [ 45.230902200000102, 4.74004510000003 ] } },
{ "type": "Feature", "properties": { "settlementName": "Xamiir Gaab", "settlementDTMId": "DTM-SO2001-2880", "urbanName": "Belet Weyne", "admin1Name": "Hiraan", "admin2Name": "Belet Weyne", "settlementClass": "IDP site (camp or camp-like setting)", "idpIndividuals": 1055, "idpHouseholds": 176, "populationCategory": "IDP", "inFlood": 1 }, "geometry": { "type": "Point", "coordinates": [ 45.2050182, 4.72346990000005 ] } },
{ "type": "Feature", "properties": { "settlementName": "Xawa Tako", "settlementDTMId": "DTM-SO2001-11901", "urbanName": "Belet Weyne", "admin1Name": "Hiraan", "admin2Name": "Belet Weyne", "settlementClass": "Host community (village or neighbourhood)", "idpIndividuals": 0, "idpHouseholds": 0, "populationCategory": "RES", "inFlood": 1 }, "geometry": { "type": "Point", "coordinates": [ 45.208469200000103, 4.74151770000003 ] } }
]
}
