{
"type": "FeatureCollection",
"name": "river",
"crs": { "type": "name", "properties": { "name": "urn:ogc:def:crs:OGC:1.3:CRS84" } },
"features": [
{ "type": "Feature", "properties": { "NAME": "Shabelle River", "CODE": "PSR", "CLASS": 1 }, "geometry": { "type": "MultiLineString", "coordinates": [ [ [ 45.205400509373462, 4.782662480469337 ], [ 45.20345306400003, 4.781185150000056 ], [ 45.20227432300004, 4.779930591000038 ], [ 45.201255798000034, 4.779538632000026 ], [ 45.200000763000048, 4.779930591000038 ], [ 45.199295044000053, 4.780793190000054 ], [ 45.199125532409347, 4.781855480698681 ] ], [ [ 45.187942033148353, 4.7701334693472 ], [ 45.188270569000053, 4.769366264000041 ], [ 45.188858033000031, 4.76456403800006 ], [ 45.18983841000005, 4.761819839000054 ], [ 45.190132141000049, 4.759468079000044 ], [ 45.190719604000037, 4.757606030000034 ], [ 45.191993713000045, 4.755156040000031 ], [ 45.191993713000045, 4.753881931000024 ], [ 45.191505433000032, 4.750844001000075 ], [ 45.191799164000031, 4.749667644000056 ], [ 45.192287445000034, 4.749667644000056 ], [ 45.194347382000046, 4.750452042000063 ], [ 45.195915222000053, 4.751039982000066 ], [ 45.19748306200006, 4.750941753000063 ], [ 45.198268890000065, 4.750452042000063 ], [ 45.198364258000026, 4.749569893000057 ], [ 45.19816970800008, 4.748785972000064 ], [ 45.19748306200006, 4.748099804000049 ], [ 45.196109772000057, 4.747707843000057 ], [ 45.195522308000079, 4.747119903000055 ], [ 45.195621490000065, 4.746531964000042 ], [ 45.196109772000057, 4.745845794000047 ], [ 45.196895599000072, 4.745649815000036 ], [ 45.19816970800008, 4.745453835000035 ], [ 45.198856354000043, 4.745061874000044 ], [ 45.199050904000046, 4.74476766600003 ], [ 45.199150085000042, 4.743297577000021 ], [ 45.199150085000042, 4.742317677000074 ], [ 45.200031281000065, 4.74153375700007 ], [ 45.201404571000069, 4.740945816000021 ], [ 45.203166962000068, 4.74074983600002 ], [ 45.203754425000056, 4.740651607000075 ], [ 45.203952790000073, 4.740259648000062 ], [ 45.203853607000042, 4.73947572700007 ], [ 45.202774048000038, 4.738103390000049 ], [ 45.201793670000029, 4.737319470000045 ], [ 45.201206207000041, 4.736868858000037 ], [ 45.200817108000081, 4.736320019000061 ], [ 45.200893402000077, 4.735379219000038 ], [ 45.201519013000052, 4.734516620000022 ], [ 45.20183563300003, 4.733967781000047 ], [ 45.201679230000025, 4.733262062000051 ], [ 45.200973511000029, 4.732948780000072 ], [ 45.200267791000044, 4.732713222000029 ], [ 45.199718476000044, 4.732086182000046 ], [ 45.199638367000034, 4.731145382000022 ], [ 45.200187683000081, 4.729028702000051 ], [ 45.20042419400005, 4.727931023000053 ], [ 45.200656891000051, 4.72746038400004 ], [ 45.201755524000077, 4.72746038400004 ], [ 45.202617645000032, 4.727695942000025 ], [ 45.203559876000043, 4.728401184000063 ], [ 45.203952790000073, 4.728793144000065 ], [ 45.203952790000073, 4.730282784000053 ], [ 45.203716278000059, 4.731929302000026 ], [ 45.203559876000043, 4.732948780000072 ], [ 45.203636170000038, 4.733810902000073 ], [ 45.204109192000033, 4.734124661000067 ], [ 45.204891205000081, 4.733810902000073 ], [ 45.205440521000071, 4.733026981000023 ], [ 45.205909729000041, 4.73239994100004 ], [ 45.206459045000031, 4.73239994100004 ], [ 45.206932068000071, 4.732948780000072 ], [ 45.206851959000062, 4.733810902000073 ], [ 45.206302643000072, 4.73490858100007 ], [ 45.20598983800005, 4.735849380000047 ], [ 45.205677033000029, 4.737182141000062 ], [ 45.205677033000029, 4.738593578000064 ], [ 45.206302643000072, 4.739142418000029 ], [ 45.207088470000031, 4.739142418000029 ], [ 45.208026886000027, 4.738907337000057 ], [ 45.208969116000048, 4.738750457000037 ], [ 45.20975112900004, 4.738828659000035 ], [ 45.210067749000075, 4.739456177000022 ], [ 45.20975112900004, 4.740240097000026 ], [ 45.209674835000044, 4.741102219000027 ], [ 45.20975112900004, 4.741729736000025 ], [ 45.210380554000039, 4.741807937000033 ], [ 45.211086273000035, 4.741494656000043 ], [ 45.211635590000071, 4.740475178000054 ], [ 45.211868286000026, 4.738279820000059 ], [ 45.211555481000062, 4.73592805800007 ], [ 45.211399078000056, 4.734046459000069 ], [ 45.211711884000067, 4.732164860000069 ], [ 45.212890625000057, 4.731224060000045 ], [ 45.213596344000052, 4.730910301000051 ], [ 45.214378357000044, 4.730988503000049 ], [ 45.214847564000081, 4.731224060000045 ], [ 45.214847564000081, 4.732086182000046 ], [ 45.214614868000069, 4.733026981000023 ], [ 45.214458465000064, 4.733967781000047 ], [ 45.215007782000043, 4.735300541000072 ], [ 45.215869904000044, 4.736320019000061 ], [ 45.216651916000046, 4.736711979000063 ], [ 45.217906952000078, 4.736868858000037 ], [ 45.219081879000044, 4.736555099000043 ], [ 45.220493316000045, 4.735222340000064 ], [ 45.221511841000051, 4.733967781000047 ], [ 45.222690582000041, 4.733183861000043 ], [ 45.223628998000038, 4.732713222000029 ], [ 45.224727630000075, 4.731772423000052 ], [ 45.225276947000054, 4.731224060000045 ], [ 45.22551345800008, 4.730204582000056 ], [ 45.22543335000006, 4.728714943000057 ], [ 45.22488403300008, 4.728322983000055 ], [ 45.224178314000028, 4.728322983000055 ], [ 45.223552704000042, 4.728793144000065 ], [ 45.222297668000067, 4.729028702000051 ], [ 45.221435547000056, 4.728793144000065 ], [ 45.220886230000076, 4.727931023000053 ], [ 45.22010040300006, 4.725500583000041 ], [ 45.219474793000074, 4.723854065000069 ], [ 45.219238281000059, 4.72173738500004 ], [ 45.218143463000047, 4.719542026000056 ], [ 45.217121124000073, 4.717503547000035 ], [ 45.216888428000061, 4.715935707000028 ], [ 45.217044830000077, 4.713740349000034 ], [ 45.217281342000035, 4.712642669000047 ], [ 45.217357636000031, 4.711780071000021 ], [ 45.216888428000061, 4.710917950000066 ], [ 45.215789795000035, 4.710917950000066 ], [ 45.214302063000048, 4.710917950000066 ], [ 45.213047028000062, 4.71107482900004 ], [ 45.212417602000073, 4.711623192000047 ], [ 45.212028504000045, 4.711623192000047 ], [ 45.211635590000071, 4.710917950000066 ], [ 45.211399078000056, 4.709741592000057 ], [ 45.211086273000035, 4.707938671000022 ], [ 45.209674835000044, 4.705821514000036 ], [ 45.208183289000033, 4.704018593000058 ], [ 45.207401276000041, 4.703140258000076 ], [ 45.206523896000078, 4.702575684000067 ], [ 45.205894470000032, 4.702262401000041 ], [ 45.205828827077873, 4.702262401000041 ] ], [ [ 45.204239687676278, 4.702698308552832 ], [ 45.20413970900006, 4.702826977000029 ], [ 45.203762054000038, 4.70339107500007 ], [ 45.20326232900004, 4.703328610000028 ], [ 45.202908879534142, 4.703063354765825 ] ] ] } }
]
}
